HIMAWARI-8              
1 40267U 14060A   23217.43521677 -.00000287  00000+0  00000+0 0  9996
2 40267   0.0126  85.8197 0000544 107.8987  57.3080  1.00269874 32365
